KUIPER-00167            
1 65780U 25217U   25317.00002315 -.01069116  00000+0 -43368-1 0  9992
2 65780  51.8729 208.8337 0008252 239.6637  17.4330 15.26969257  5784
KUIPER-00168            
1 65781U 25217V   25316.93030064  .00065435  00000+0  17019-2 0  9998
2 65781  51.8706 208.2160 0003155 145.0595 215.0600 15.38300533  7460
KUIPER-00169            
1 65782U 25217W   25316.69359175  .00063934  00000+0  16942-2 0  9995
2 65782  51.8706 209.6234 0001782 173.1750 186.9261 15.37737987  7428
KUIPER-00170            
1 65783U 25217X   25316.91863387  .00085018  00000+0  23474-2 0  9991
2 65783  51.8649 208.8574 0006095 255.7543 104.2766 15.36317428  7451
KUIPER-00171            
1 65784U 25217Y   25317.00002315  .00490488  00000+0  57835-2 0  9998
2 65784  51.8585 206.4591 0006811 264.4333  88.5369 15.59155790  5362
KUIPER-00172            
1 65785U 25217Z   25316.09567594  .00042737  00000+0  11275-2 0  9990
2 65785  51.8717 212.3690 0003149 200.6072 159.4789 15.38051297  7336
KUIPER-00173            
1 65786U 25217AA  25315.97272876  .00075363  00000+0  19950-2 0  9992
2 65786  51.8710 213.0412 0002389 186.1282 173.9676 15.37693860  7317
KUIPER-00174            
1 65787U 25217AB  25316.73944062  .00107303  00000+0  27867-2 0  9997
2 65787  51.8715 209.1840 0003552 148.7121 211.4078 15.38104110  7436
